[{"OBJECT_NAME":"STARLINK-32607","OBJECT_ID":"2024-210U","EPOCH":"2026-03-09T12:44:21.402528","MEAN_MOTION":15.27575557,"ECCENTRICITY":0.00013494,"INCLINATION":43.0027,"RA_OF_ASC_NODE":180.8898,"ARG_OF_PERICENTER":270.9925,"MEAN_ANOMALY":89.0772,"EPHEMERIS_TYPE":0,"CLASSIFICATION_TYPE":"U","NORAD_CAT_ID":61977,"ELEMENT_SET_NO":999,"REV_AT_EPOCH":7489,"BSTAR":0.0008081234,"MEAN_MOTION_DOT":0.00022039,"MEAN_MOTION_DDOT":0},{"OBJECT_NAME":"KUIPER-00252","OBJECT_ID":"2025-301AA","EPOCH":"2026-03-09T22:00:01.999584","MEAN_MOTION":15.32961042,"ECCENTRICITY":0.00108625,"INCLINATION":51.8682,"RA_OF_ASC_NODE":64.6463,"ARG_OF_PERICENTER":55.9089,"MEAN_ANOMALY":330.8749,"EPHEMERIS_TYPE":0,"CLASSIFICATION_TYPE":"U","NORAD_CAT_ID":67157,"ELEMENT_SET_NO":999,"REV_AT_EPOCH":542,"BSTAR":-0.017504489,"MEAN_MOTION_DOT":-0.00529484,"MEAN_MOTION_DDOT":0}]
